CZ-2D R/B               
1 28738U 05024B   26087.49187847  .00049840  00000+0  57362-3 0  9990
2 28738  97.3581 103.3508 0002437 340.8411  19.2754 15.61848764142713
ALOS (DAICHI)           
1 28931U 06002A   26087.42792512  .00001438  00000+0  24883-3 0  9999
2 28931  98.1247  43.2937 0000863 106.4422 253.6879 14.69865987 76231
H-2A R/B                
1 28932U 06002B   26087.41275894  .00012896  00000+0  63649-3 0  9991
2 28932  98.2444 236.0565 0052388 176.9793 183.1765 15.16827933 97273
RESURS-DK 1             
1 29228U 06021A   26087.57836250  .00002559  00000+0  15126-3 0  9999
2 29228  69.9338 188.1622 0001199  53.9146 306.2131 15.12862078 90385
CZ-4B R/B               
1 29507U 06046C   26087.60617693  .00005463  00000+0  27551-3 0  9990
2 29507  97.5560 132.4629 0032716 199.3833 160.6159 15.17090460 62918
CZ-2C R/B               
1 31114U 07010B   26087.53610799  .00000135  00000+0  80999-4 0  9998
2 31114  98.3998 199.8721 0058072 238.7731 120.7748 14.20252853982390
COSMO-SKYMED 1          
1 31598U 07023A   26087.58560588  .00003577  00000+0  31876-3 0  9995
2 31598  97.8875 278.7719 0000961  99.7926 260.3404 14.96668274 17731
COSMOS 2428             
1 31792U 07029A   26087.57857081 -.00000039  00000+0  48718-5 0  9999
2 31792  70.9434 163.6998 0009698 257.6370 102.3666 14.12948325966762
SL-16 R/B               
1 31793U 07029B   26087.59220089  .00000038  00000+0  44595-4 0  9990
2 31793  70.9748 132.6519 0002709 277.8759 194.6240 14.14843430968045
KORONAS-FOTON           
1 33504U 09003A   26087.49947832  .00016135  00000+0  35436-3 0  9995
2 33504  82.4276 256.3122 0011780  88.8252 271.4344 15.43816881948648
CZ-2C R/B               
1 37731U 11030B   26087.61504873  .00001539  00000+0  19999-3 0  9990
2 37731  97.8575  44.5041 0051117 289.4659 244.4410 14.81287183792897
H-2A R/B                
1 38341U 12025E   26087.46612084  .00003727  00000+0  33845-3 0  9997
2 38341  98.4761  56.0209 0042733 250.7783 108.8810 14.95298054751027
SHIJIAN-16 (SJ-16)      
1 39358U 13057A   26087.60053660  .00001887  00000+0  18656-3 0  9995
2 39358  74.9724 149.2900 0015237  63.5292 296.7458 14.92420597674329
SL-4 R/B                
1 39679U 14021B   26087.45380746  .00021313  00000+0  45820-3 0  9993
2 39679  51.6044 245.6935 0095626 171.3669 188.8987 15.39818811659162
ALOS-2                  
1 39766U 14029A   26087.58827914  .00001956  00000+0  26886-3 0  9997
2 39766  97.9186 185.9108 0001928 102.7367 257.4060 14.79446030639663
YAOGAN-29               
1 41038U 15069A   26087.61907782  .00000099  00000+0  18890-4 0  9997
2 41038  98.0123 116.0975 0000509   0.4025 359.7188 14.83013570558680
ASTRO-H (HITOMI)        
1 41337U 16012A   26087.47261404  .00003394  00000+0  19733-3 0  9993
2 41337  30.9987 235.3252 0009627 160.8591 199.2410 15.10120215555078
HXMT (HUIYAN)           
1 42758U 17034A   26087.60146576  .00005750  00000+0  28806-3 0  9992
2 42758  43.0138 271.5127 0031927 351.7520   8.2800 15.17697736485419
SAOCOM 1A               
1 43641U 18076A   26087.59595433  .00000097  00000+0  18734-4 0  9998
2 43641  97.8907 275.5017 0001430  85.9232 274.2145 14.82158395404160
H-2A R/B                
1 43682U 18084L   26087.55442078  .00023113  00000+0  53602-3 0  9990
2 43682  98.8711 308.9843 0023781 319.5540  40.3934 15.42134956408681
SAOCOM 1B               
1 46265U 20059A   26087.55967963  .00000706  00000+0  95254-4 0  9993
2 46265  97.8908 274.5639 0001539  87.6326 272.5063 14.82157134301546
CSS (TIANHE)            
1 48274U 21035A   26087.39534363  .00017812  00000+0  20488-3 0  9998
2 48274  41.4669  94.2614 0004058  45.3760 314.7410 15.61580461280530
COSMOS 2550             
1 48865U 21056A   26087.49272868 -.00000186  00000+0  18968-6 0  9997
2 48865  67.1421 344.0047 0008440 269.5686  90.4502 15.33828274266348
CZ-2C R/B               
1 52794U 22058K   26087.59877230  .00044205  00000+0  61128-3 0  9993
2 52794  50.1873 220.9188 0041500 281.9247  77.7073 15.55613526213079
CZ-2C R/B               
1 54039U 22132E   26087.58182171  .00048831  00000+0  52079-3 0  9996
2 54039  97.2960  91.4974 0017700  29.7061 330.5199 15.63619581193323
GSLV R/B                
1 54149U 22138AN  26087.43960105  .00002448  00000+0  20975-3 0  9993
2 54149  87.3863 160.0857 0024047  84.9694 275.4282 14.96891410186732
XRISM                   
1 57800U 23137A   26087.59191216  .00006351  00000+0  35792-3 0  9996
2 57800  31.0016 161.3818 0007952 229.4111 130.5836 15.11713690140650
ACS3                    
1 59588U 24077B   26087.57313832  .00022962  00000+0  18062-1 0  9998
2 59588  97.1966  24.4398 0072461  33.5084 327.0633 13.90460123 96826
SZ-21 MODULE            
1 66515U 25246C   26087.27448309  .00043062  00000+0  34891-3 0  9994
2 66515  41.4743  88.8326 0001568 210.3682 149.7069 15.69967006 20990
